[{"OBJECT_NAME":"STARLINK-3369","OBJECT_ID":"2022-005AQ","EPOCH":"2026-03-09T22:22:22.044576","MEAN_MOTION":15.18998951,"ECCENTRICITY":0.00032386,"INCLINATION":53.2137,"RA_OF_ASC_NODE":280.745,"ARG_OF_PERICENTER":175.5204,"MEAN_ANOMALY":184.5822,"EPHEMERIS_TYPE":0,"CLASSIFICATION_TYPE":"U","NORAD_CAT_ID":51142,"ELEMENT_SET_NO":999,"REV_AT_EPOCH":22901,"BSTAR":0.0020382455,"MEAN_MOTION_DOT":0.00043116,"MEAN_MOTION_DDOT":0},{"OBJECT_NAME":"CONNECTA IOT-12","OBJECT_ID":"2025-135AB","EPOCH":"2026-03-09T20:41:06.229824","MEAN_MOTION":15.2119731,"ECCENTRICITY":0.00020679,"INCLINATION":97.4617,"RA_OF_ASC_NODE":185.2328,"ARG_OF_PERICENTER":71.4086,"MEAN_ANOMALY":288.7374,"EPHEMERIS_TYPE":0,"CLASSIFICATION_TYPE":"U","NORAD_CAT_ID":64553,"ELEMENT_SET_NO":999,"REV_AT_EPOCH":3977,"BSTAR":0.0002684746,"MEAN_MOTION_DOT":5.919e-5,"MEAN_MOTION_DDOT":0}]
